icao	latitude	longitude	elev	name	state	country	wban	ncei_id	county	timezone
KABR	45.4558299999999988	-98.4130600000000015	"1302"	ABERDEEN	SD	UNITED STATES	"14929"	"30001794"	BROWN	"-6"
KABX	35.1497200000000021	-106.8233299999999986	"5870"	ALBUQUERQUE	NM	UNITED STATES	"03019"	"30001795"	BERNALILLO	"-7"
KAKQ	36.9838900000000024	-77.0074999999999932	"112"	NORFOLK RICH	VA	UNITED STATES	"93773"	"30001796"	SUSSEX	"-5"
KAMA	35.2333300000000023	-101.7088899999999967	"3587"	AMARILLO	TX	UNITED STATES	"23047"	"30001797"	POTTER	"-6"
KAMX	25.6105599999999995	-80.4130600000000015	"14"	MIAMI	FL	UNITED STATES	"12899"	"30001798"	DADE	"-5"
KAPX	44.9072200000000024	-84.7197199999999953	"1464"	GAYLORD	MI	UNITED STATES	"04837"	"30001799"	ANTRIM	"-5"
KARX	43.8227800000000016	-91.1911099999999948	"1276"	LA CROSSE	WI	UNITED STATES	"94987"	"30001800"	LA CROSSE	"-6"
KATX	48.1947199999999967	-122.4944399999999973	"494"	SEATTLE	WA	UNITED STATES	"94287"	"30001801"	ISLAND	"-8"
KBBX	39.4961100000000016	-121.6316699999999997	"173"	BEALE AFB	CA	UNITED STATES	"93240"	"30001802"	BUTTE	"-8"
KBGM	42.1997199999999992	-75.9849999999999994	"1606"	BINGHAMTON	NY	UNITED STATES	"04725"	"30001807"	BROOME	"-5"
KBHX	40.4983300000000028	-124.2919399999999968	"2402"	EUREKA	CA	UNITED STATES	"94289"	"30001808"	HUMBOLDT	"-8"
KBIS	46.7708299999999966	-100.7602799999999945	"1658"	BISMARCK	ND	UNITED STATES	"24011"	"30001809"	BURLEIGH	"-6"
KBLX	45.8538899999999998	-108.6061100000000010	"3598"	BILLINGS	MT	UNITED STATES	"94046"	"30001811"	YELLOWSTONE	"-7"
KBMX	33.1719399999999993	-86.7697200000000066	"645"	BIRMINGHAM	AL	UNITED STATES	"53823"	"30001812"	SHELBY	"-6"
KBOX	41.9558299999999988	-71.1375000000000028	"118"	BOSTON	MA	UNITED STATES	"54765"	"30001813"	BRISTOL	"-5"
KBRO	25.9155599999999993	-97.4186100000000010	"23"	BROWNSVILLE	TX	UNITED STATES	"12919"	"30001814"	CAMERON	"-6"
KBUF	42.9486100000000022	-78.7369400000000041	"693"	BUFFALO	NY	UNITED STATES	"14733"	"30001815"	ERIE	"-5"
KBYX	24.5969400000000000	-81.7033299999999940	"8"	KEY WEST	FL	UNITED STATES	"92804"	"30001816"	MONROE	"-5"
KCAE	33.9486100000000022	-81.1186100000000039	"231"	COLUMBIA	SC	UNITED STATES	"13883"	"30001781"	LEXINGTON	"-5"
KCBW	46.0391699999999986	-67.8069399999999973	"746"	HOULTON	ME	UNITED STATES	"94625"	"30001782"	AROOSTOOK	"-5"
KCBX	43.4908300000000025	-116.2344400000000064	"3061"	BOISE	ID	UNITED STATES	"04101"	"30001817"	ADA	"-7"
KCCX	40.9230599999999995	-78.0038899999999984	"2405"	STATE COLLEGE	PA	UNITED STATES	"54764"	"30001783"	CENTRE	"-5"
KCLE	41.4130600000000015	-81.8599999999999994	"763"	CLEVELAND	OH	UNITED STATES	"14820"	"30001818"	CUYAHOGA	"-5"
KCLX	32.6555600000000013	-81.0422200000000004	"97"	CHARLESTON	SC	UNITED STATES	"53845"	"30001819"	BEAUFORT	"-5"
KCRI	35.2383000000000024	-97.4602000000000004	"1201"	ROC FAA REDUNDANT RDA 1	OK	UNITED STATES		"30078819"	CLEVELAND	"-6"
KCRP	27.7838899999999995	-97.5108299999999986	"45"	CORPUS CHRISTI	TX	UNITED STATES	"12924"	"30001821"	NUECES	"-6"
KCXX	44.5111100000000022	-73.1663900000000069	"317"	BURLINGTON	VT	UNITED STATES	"54774"	"30001822"	CHITTENDEN	"-5"
KCYS	41.1519400000000033	-104.8061100000000039	"6128"	CHEYENNE	WY	UNITED STATES	"24018"	"30001823"	LARAMIE	"-7"
KDAX	38.5011099999999971	-121.6766700000000014	"30"	SACRAMENTO	CA	UNITED STATES	"93235"	"30001824"	YOLO	"-8"
KDDC	37.7608299999999986	-99.9683299999999946	"2590"	DODGE CITY	KS	UNITED STATES	"13985"	"30001825"	FORD	"-6"
KDFX	29.2725000000000009	-100.2802800000000047	"1131"	LAUGHLIN AFB	TX	UNITED STATES	"22015"	"30001826"	KINNEY	"-6"
KDGX	32.2800000000000011	-89.9844400000000064	"-99999"	JACKSON BRANDON	MS	UNITED STATES		"30001827"	RANKIN	"-6"
KDIX	39.9469399999999979	-74.4111099999999936	"149"	PHILADELPHIA	NJ	UNITED STATES	"93771"	"30001828"	BURLINGTON	"-5"
KDLH	46.8369399999999985	-92.2097200000000043	"1428"	DULUTH	MN	UNITED STATES	"14913"	"30001829"	ST. LOUIS	"-6"
KDMX	41.7311100000000010	-93.7227800000000002	"981"	DES MOINES	IA	UNITED STATES	"94984"	"30001830"	POLK	"-6"
KDOX	38.8255600000000030	-75.4399999999999977	"50"	DOVER AFB	DE	UNITED STATES	"93770"	"30001831"	SUSSEX	"-5"
KDTX	42.6997199999999992	-83.4716700000000031	"1072"	DETROIT	MI	UNITED STATES	"04830"	"30001832"	OAKLAND	"-5"
KDVN	41.6116699999999966	-90.5808300000000060	"754"	DAVENPORT	IA	UNITED STATES	"94982"	"30001833"	SCOTT	"-6"
KDYX	32.5383300000000020	-99.2541700000000020	"1517"	DYESS AFB	TX	UNITED STATES	"03987"	"30001834"	SHACKELFORD	"-6"
KEAX	38.8102799999999988	-94.2641699999999929	"995"	KANSAS CITY	MO	UNITED STATES	"03983"	"30001835"	CASS	"-6"
KEMX	31.8936099999999989	-110.6302799999999991	"5202"	TUCSON	AZ	UNITED STATES	"53112"	"30001836"	PIMA	"-7"
KENX	42.5863900000000015	-74.0644400000000047	"1826"	ALBANY	NY	UNITED STATES	"54766"	"30001837"	ALBANY	"-5"
KEOX	31.4602800000000009	-85.4594400000000007	"434"	FORT RUCKER	AL	UNITED STATES	"53851"	"30001838"	DALE	"-6"
KEPZ	31.8730599999999988	-106.6975000000000051	"4104"	EL PASO	NM	UNITED STATES	"03020"	"30001839"	DONA ANA	"-7"
KESX	35.7011099999999999	-114.8913900000000012	"4867"	LAS VEGAS	NV	UNITED STATES	"53110"	"30001841"	CLARK	"-8"
KEVX	30.5641700000000007	-85.9213900000000024	"140"	EGLIN AFB	FL	UNITED STATES	"53825"	"30001842"	WALTON	"-5"
KEWX	29.7036100000000012	-98.0280599999999964	"633"	AUSTIN SAN ANTONIO	TX	UNITED STATES	"12971"	"30001843"	COMAL	"-6"
KEYX	35.0977800000000002	-117.5600000000000023	"2757"	EDWARDS	CA	UNITED STATES	"53114"	"30001943"	SANTA BARBARA	"-8"
KFCX	37.0241699999999980	-80.2741699999999980	"2868"	ROANOKE	VA	UNITED STATES	"53831"	"30001844"	FLOYD	"-5"
KFDR	34.3622200000000007	-98.9761100000000056	"1267"	ALTUS AFB	OK	UNITED STATES	"03981"	"30001845"	TILLMAN	"-6"
KFDX	34.6352800000000016	-103.6294400000000024	"4650"	CANNON AFB	NM	UNITED STATES	"03022"	"30001846"	CURRY	"-7"
KFFC	33.3633299999999977	-84.5658300000000054	"858"	ATLANTA	GA	UNITED STATES	"53819"	"30001847"	FAYETTE	"-5"
KFSD	43.5877800000000022	-96.7288900000000069	"1430"	SIOUX FALLS	SD	UNITED STATES	"14944"	"30001944"	MINNEHAHA	"-6"
KFSX	34.5744400000000027	-111.1983299999999986	"-99999"	FLAGSTAFF	AZ	UNITED STATES	"53113"	"30001848"	COCONINO	"-7"
KFTG	39.7866700000000009	-104.5452800000000053	"5497"	DENVER FR. RANGE	CO	UNITED STATES	"03018"	"30001849"	ARAPAHOE	"-7"
KFWS	32.5727800000000016	-97.3027799999999985	"683"	DALLAS	TX	UNITED STATES	"03985"	"30001850"	TARRANT	"-6"
KGGW	48.2063899999999990	-106.6241700000000066	"2276"	GLASGOW	MT	UNITED STATES	"94008"	"30001851"	VALLEY	"-7"
KGJX	39.0622200000000035	-108.2130599999999987	"9992"	GRAND JUNCTION	CO	UNITED STATES	"03025"	"30001852"	MESA	"-7"
KGLD	39.3669399999999996	-101.7000000000000028	"3651"	GOODLAND	KS	UNITED STATES	"23065"	"30001853"	SHERMAN	"-7"
KGRB	44.4983300000000028	-88.1111099999999965	"682"	GREEN BAY	WI	UNITED STATES	"14898"	"30001854"	BROWN	"-6"
KGRK	30.7216699999999996	-97.3827799999999968	"538"	FORT HOOD	TX	UNITED STATES	"03992"	"30001855"	BELL	"-6"
KGRR	42.8938899999999990	-85.5447199999999981	"778"	GRAND RAPIDS	MI	UNITED STATES	"94860"	"30001856"	KENT	"-5"
KGSP	34.8830600000000004	-82.2202800000000025	"940"	GREER	SC	UNITED STATES	"03870"	"30001857"	SPARTANBURG	"-5"
KGWX	33.8966700000000003	-88.3288900000000012	"476"	COLUMBUS AFB	MS	UNITED STATES	"53837"	"30001858"	MONROE	"-6"
KGYX	43.8913900000000012	-70.2569400000000002	"409"	PORTLAND	ME	UNITED STATES	"54762"	"30001859"	CUMBERLAND	"-5"
KHDX	33.0763900000000035	-106.1222199999999987	"4222"	HOLLOMAN AFB	NM	UNITED STATES	"03023"	"30001945"	DONA ANA	"-7"
KHGX	29.4719400000000000	-95.0788900000000012	"18"	HOUSTON	TX	UNITED STATES	"03980"	"30001860"	GALVESTON	"-6"
KHNX	36.3141699999999972	-119.6311100000000067	"243"	SAN JOAQUIN VALLEY	CA	UNITED STATES	"53111"	"30001861"	KINGS	"-8"
KHPX	36.7366699999999966	-87.2849999999999966	"576"	FORT CAMPBELL	KY	UNITED STATES	"53839"	"30001862"	TODD	"-6"
KHTX	34.9305599999999998	-86.0836099999999931	"1760"	HUNTSVILLE	AL	UNITED STATES	"53857"	"30001863"	JACKSON	"-6"
KICT	37.6544400000000010	-97.4424999999999955	"1335"	WICHITA	KS	UNITED STATES	"03928"	"30001864"	SEDGWICK	"-6"
KICX	37.5908299999999969	-112.8622199999999935	"10600"	CEDAR CITY	UT	UNITED STATES	"53118"	"30001865"	IRON	"-7"
KILN	39.4202799999999982	-83.8216699999999975	"1056"	CINCINNATI	OH	UNITED STATES	"13841"	"30001866"	CLINTON	"-5"
KILX	40.1505599999999987	-89.3366699999999980	"582"	LINCOLN	IL	UNITED STATES	"04833"	"30001867"	LOGAN	"-6"
KIND	39.7075000000000031	-86.2802800000000047	"790"	INDIANAPOLIS	IN	UNITED STATES	"93819"	"30001868"	MARION	"-5"
KINX	36.1749999999999972	-95.5644400000000047	"668"	TULSA	OK	UNITED STATES	"03984"	"30001869"	ROGERS	"-6"
KIWA	33.2891699999999986	-111.6691699999999940	"1353"	PHOENIX	AZ	UNITED STATES	"23104"	"30001870"	MARICOPA	"-7"
KIWX	41.4086100000000030	-85.7000000000000028	"960"	FORT WAYNE	IN	UNITED STATES	"04844"	"30001871"	KOSCIUSKO	"-5"
KJAX	30.4844399999999993	-81.7019399999999933	"33"	JACKSONVILLE	FL	UNITED STATES	"13889"	"30001872"	DUVAL	"-5"
KJGX	32.6749999999999972	-83.3511100000000056	"521"	ROBINS AFB	GA	UNITED STATES	"53824"	"30001873"	TWIGGS	"-5"
KJKL	37.5908299999999969	-83.3130599999999930	"1364"	JACKSON	KY	UNITED STATES	"03889"	"30001874"	BREATHITT	"-5"
KLBB	33.6541700000000006	-101.8136099999999971	"3259"	LUBBOCK	TX	UNITED STATES	"23042"	"30001875"	LUBBOCK	"-6"
KLCH	30.1250000000000000	-93.2158299999999969	"13"	LAKE CHARLES	LA	UNITED STATES	"03937"	"30001876"	CALCASIEU	"-6"
KLGX	47.1158000000000001	-124.1068999999999960	"252"	LANGLEY HILL	WA	UNITED STATES		"30078818"	GRAYS HARBOR	"-8"
KLIX	30.3366700000000016	-89.8252800000000065	"24"	NEW ORLEANS	LA	UNITED STATES	"53813"	"30001877"	ST. TAMMANY	"-6"
KLNX	41.9577799999999996	-100.5758299999999963	"2970"	NORTH PLATTE	NE	UNITED STATES	"94049"	"30001878"	LOGAN	"-6"
KLOT	41.6044399999999968	-88.0847200000000043	"663"	CHICAGO	IL	UNITED STATES	"04831"	"30001879"	WILL	"-6"
KLRX	40.7397199999999984	-116.8027799999999985	"6744"	ELKO	NV	UNITED STATES	"04108"	"30001880"	LANDER	"-8"
KLSX	38.6988899999999987	-90.6827799999999939	"608"	ST LOUIS	MO	UNITED STATES	"03982"	"30001881"	ST. CHARLES	"-6"
KLTX	33.9891700000000014	-78.4291699999999992	"64"	WILMINGTON	NC	UNITED STATES	"93774"	"30001882"	BRUNSWICK	"-5"
KLVX	37.9752799999999979	-85.9438899999999961	"719"	LOUISVILLE	KY	UNITED STATES	"53827"	"30001883"	HARDIN	"-5"
KLWX	38.9762800000000027	-77.4875100000000003	"-99999"	STERLING	VA	UNITED STATES	"93767"	"30001884"	LOUDOUN	"-5"
KLZK	34.8363900000000015	-92.2619399999999956	"568"	LITTLE ROCK	AR	UNITED STATES	"03952"	"30001885"	PULASKI	"-6"
KMAF	31.9433299999999996	-102.1888900000000007	"2868"	MIDLAND ODESSA	TX	UNITED STATES	"23023"	"30001886"	MIDLAND	"-6"
KMAX	42.0811100000000025	-122.7161100000000005	"7513"	MEDFORD	OR	UNITED STATES	"94296"	"30001887"	JACKSON	"-8"
KMBX	48.3924999999999983	-100.8644400000000019	"1493"	MINOT AFB	ND	UNITED STATES	"94048"	"30001888"	MCHENRY	"-6"
KMHX	34.7758299999999991	-76.8763900000000007	"31"	MOREHEAD CITY	NC	UNITED STATES	"93768"	"30001889"	CARTERET	"-5"
KMKX	42.9677799999999976	-88.5505600000000044	"958"	MILWAUKEE	WI	UNITED STATES	"04834"	"30001890"	WAUKESHA	"-6"
KMLB	28.1130600000000008	-80.6544399999999939	"99"	MELBOURNE	FL	UNITED STATES	"12838"	"30001891"	BREVARD	"-5"
KMOB	30.6794399999999996	-88.2397200000000055	"208"	MOBILE	AL	UNITED STATES	"13894"	"30001892"	MOBILE	"-6"
KMPX	44.8488899999999973	-93.5652800000000013	"946"	MINNEAPOLIS	MN	UNITED STATES	"94983"	"30001893"	CARVER	"-6"
KMQT	46.5311099999999982	-87.5483300000000071	"1411"	MARQUETTE	MI	UNITED STATES	"94850"	"30001894"	MARQUETTE	"-5"
KMRX	36.1683299999999974	-83.4019399999999962	"1337"	KNOXVILLE	TN	UNITED STATES	"53832"	"30001895"	HAMBLEN	"-5"
KMSX	47.0411100000000033	-113.9861099999999965	"7855"	MISSOULA	MT	UNITED STATES	"04103"	"30001896"	MISSOULA	"-7"
KMTX	41.2627799999999993	-112.4469399999999979	"6460"	SALT LAKE CITY	UT	UNITED STATES	"04104"	"30001897"	SALT LAKE	"-7"
KMUX	37.1552799999999976	-121.8974999999999937	"3469"	SAN FRANCISCO	CA	UNITED STATES	"93236"	"30001898"	SANTA CLARA	"-8"
KMVX	47.5280600000000035	-97.3250000000000028	"986"	GRAND FORKS	ND	UNITED STATES	"94986"	"30001899"	TRAILL	"-6"
KMXX	32.5366700000000009	-85.7897200000000026	"400"	MAXWELL AFB	AL	UNITED STATES	"53826"	"30001900"	TALLAPOOSA	"-6"
KNKX	32.9188899999999975	-117.0419399999999968	"955"	SAN DIEGO	CA	UNITED STATES	"53115"	"30001901"	SAN DIEGO	"-8"
KNQA	35.3447200000000024	-89.8733299999999957	"282"	MEMPHIS	TN	UNITED STATES	"93839"	"30001902"	SHELBY	"-5"
KOAX	41.3202799999999968	-96.3663899999999956	"1148"	OMAHA	NE	UNITED STATES	"94980"	"30001903"	DOUGLAS	"-6"
KOHX	36.2472199999999987	-86.5625000000000000	"579"	NASHVILLE	TN	UNITED STATES	"53833"	"30001904"	WILSON	"-5"
KOKX	40.8655600000000021	-72.8644400000000019	"85"	NEW YORK CITY	NY	UNITED STATES	"94703"	"30001905"	SUFFOLK	"-5"
KOTX	47.6805599999999998	-117.6258299999999934	"2384"	SPOKANE	WA	UNITED STATES	"04106"	"30001906"	SPOKANE	"-8"
KPAH	37.0683300000000031	-88.7719400000000007	"392"	PADUCAH	KY	UNITED STATES	"03816"	"30001907"	MCCRACKEN	"-6"
KPBZ	40.5316699999999983	-80.2183299999999946	"1185"	PITTSBURGH	PA	UNITED STATES	"04832"	"30001908"	ALLEGHENY	"-5"
KPDT	45.6905599999999978	-118.8527799999999957	"1515"	PENDLETON	OR	UNITED STATES	"24155"	"30001909"	UMATILLA	"-8"
KPOE	31.1552800000000012	-92.9758300000000020	"408"	FORT POLK	LA	UNITED STATES	"03993"	"30001910"	VERNON	"-6"
KPUX	38.4594400000000007	-104.1813899999999933	"5249"	PUEBLO	CO	UNITED STATES	"03021"	"30001911"	PUEBLO	"-7"
KRAX	35.6652800000000028	-78.4899999999999949	"348"	RALEIGH DURHAM	NC	UNITED STATES	"93772"	"30001912"	WAKE	"-5"
KRGX	39.7541700000000020	-119.4611100000000050	"8299"	RENO	NV	UNITED STATES	"53104"	"30001913"	WASHOE	"-8"
KRIW	43.0661100000000019	-108.4766699999999986	"5568"	RIVERTON	WY	UNITED STATES	"24061"	"30001914"	FREMONT	"-7"
KRLX	38.3119399999999999	-81.7238899999999973	"1080"	CHARLESTON	WV	UNITED STATES	"53834"	"30001915"	KANAWHA	"-5"
KRTX	45.7150000000000034	-122.9641699999999958	"-99999"	PORTLAND	OR	UNITED STATES	"94288"	"30001916"	WASHINGTON	"-8"
KSFX	43.1058299999999974	-112.6852800000000059	"4474"	POCATELLO	ID	UNITED STATES	"04107"	"30001917"	BINGHAM	"-7"
KSGF	37.2352800000000030	-93.4002799999999951	"1278"	SPRINGFIELD	MO	UNITED STATES	"13995"	"30001918"	GREENE	"-6"
KSHV	32.4505600000000030	-93.8411100000000005	"273"	SHREVEPORT	LA	UNITED STATES	"13957"	"30001920"	CADDO	"-6"
KSJT	31.3711100000000016	-100.4922200000000032	"1890"	SAN ANGELO	TX	UNITED STATES	"23034"	"30001921"	TOM GREEN	"-6"
KSOX	33.8177799999999991	-117.6350000000000051	"3027"	SANTA ANA MTNS	CA	UNITED STATES	"53117"	"30001922"	ORANGE	"-8"
KSRX	35.2905599999999993	-94.3616700000000037	"-99999"	FORT SMITH	AR	UNITED STATES	"53906"	"30001948"	SEBASTIAN	"-6"
KTBW	27.7052799999999984	-82.4019399999999962	"41"	TAMPA	FL	UNITED STATES	"92801"	"30001923"	HILLSBOROUGH	"-5"
KTFX	47.4597199999999972	-111.3844399999999979	"3714"	GREAT FALLS	MT	UNITED STATES	"04102"	"30001925"	CASCADE	"-7"
KTLH	30.3975000000000009	-84.3288900000000012	"63"	TALLAHASSEE	FL	UNITED STATES	"93805"	"30001924"	LEON	"-5"
KTLX	35.3330600000000032	-97.2775000000000034	"1213"	OKLAHOMA CITY	OK	UNITED STATES	"03979"	"30001926"	OKLAHOMA	"-6"
KTWX	38.9969400000000022	-96.2325000000000017	"1367"	TOPEKA	KS	UNITED STATES	"03986"	"30001927"	WABAUNSEE	"-6"
KTYX	43.7558300000000031	-75.6800000000000068	"1846"	FORT DRUM	NY	UNITED STATES	"54776"	"30001946"	LEWIS	"-5"
KUDX	44.1250000000000000	-102.8294400000000053	"3016"	RAPID CITY	SD	UNITED STATES	"94047"	"30001928"	PENNINGTON	"-6"
KUEX	40.3208300000000008	-98.4416700000000020	"1976"	HASTINGS	NE	UNITED STATES	"94981"	"30001929"	WEBSTER	"-6"
KVAX	30.8900000000000006	-83.0019400000000047	"178"	MOODY AFB	GA	UNITED STATES	"53856"	"30001947"	LANIER	"-5"
KVBX	34.8380599999999987	-120.3958300000000037	"1233"	VANDENBERG AFB	CA	UNITED STATES	"93234"	"30001930"	SANTA BARBARA	"-8"
KVNX	36.7408300000000025	-98.1274999999999977	"1210"	VANCE AFB	OK	UNITED STATES	"03995"	"30001931"	ALFALFA	"-6"
KVTX	34.4116700000000009	-119.1786100000000062	"2726"	LOS ANGELES	CA	UNITED STATES	"53101"	"30001932"	VENTURA	"-8"
KVWX	38.2599999999999980	-87.7246999999999986	"-99999"	EVANSVILLE	IN	UNITED STATES	"63845"	"30001609"	GIBSON	"-6"
KYUX	32.4952800000000011	-114.6558299999999946	"174"	YUMA	AZ	UNITED STATES	"53116"	"30001934"	PIMA	"-7"
LPLA	38.7302800000000005	-27.3216700000000010	"3334"	LAJES AB		AZORES	"13201"	"30001938"		"-1"
PABC	60.7927800000000005	-161.8741699999999923	"162"	BETHEL FAA	AK	UNITED STATES		"30001939"	BETHEL	"-9"
PACG	56.8527800000000028	-135.5291699999999935	"270"	SITKA	AK	UNITED STATES	"25361"	"30001940"	SITKA BOROUGH	"-9"
PAEC	64.5113900000000058	-165.2949999999999875	"54"	NOME	AK	UNITED STATES	"26641"	"30001941"	NOME	"-9"
PAHG	60.7259140000000031	-151.3514600000000030	"243"	ANCHORAGE	AK	UNITED STATES	"26548"	"30001942"	KENAI PENINSULA BOROUGH	"-9"
PAIH	59.4619399999999985	-146.3011099999999942	"67"	MIDDLETON ISLAND	AK	UNITED STATES	"25404"	"30001958"	VALDEZ-CORDOVA	"-9"
PAKC	58.6794399999999996	-156.6294399999999882	"63"	KING SALMON	AK	UNITED STATES	"25503"	"30001959"	BRISTOL BAY BOROUGH	"-9"
PAPD	65.0355600000000038	-147.4991699999999923	"2593"	FAIRBANKS	AK	UNITED STATES	"24690"	"30001960"	FAIRBANKS NORTH STAR BOROUGH	"-9"
PGUA	13.4544400000000000	144.8083300000000122	"264"	ANDERSEN AFB AGANA	GU	GUAM	"41417"	"30001961"	GUAM	"-8"
PHKI	21.8941699999999990	-159.5522200000000055	"179"	SOUTH KAUAI	HI	UNITED STATES	"22548"	"30001962"	KAUAI	"-10"
PHKM	20.1255600000000001	-155.7777800000000070	"3812"	KAMUELA	HI	UNITED STATES	"22550"	"30001963"	HAWAII	"-10"
PHMO	21.1327800000000003	-157.1800000000000068	"1363"	MOLOKAI	HI	UNITED STATES	"22547"	"30001964"	HAWAII	"-8"
PHWA	19.0949999999999989	-155.5688900000000103	"1370"	SOUTH SHORE	HI	UNITED STATES	"22513"	"30001965"	HAWAII	"-10"
RKJK	35.9241699999999966	126.6222199999999987	"78"	KUNSAN		"KOREA, SOUTH"	"43219"	"30001967"		"9"
RKSG	36.9597199999999972	127.0183300000000060	"52"	CAMP HUMPHREYS		"KOREA, SOUTH"	"43216"	"30001968"		"9"
RODN	26.3019399999999983	127.9097199999999930	"218"	KADENA		JAPAN	"42219"	"30001969"		"9"
TADW	38.6950000000000003	-76.8449999999999989	"344"	ANDREWS AFB	MD	UNITED STATES		"30112653"	PRINCE GEORGE'S	"-5"
TALT	33.6469439999999977	-84.2619439999999997	"1076"	ATLANTA	GA	UNITED STATES		"30112655"	WEBSTER	"-5"
TBNA	35.9799999999999969	-86.6619440000000054	"817"	NASHVILLE	TN	UNITED STATES		"30112680"	WILLIAMSON	"-6"
TBOS	42.1580560000000020	-70.9330559999999934	"262"	BOSTON	MA	UNITED STATES		"30112656"	NORFOLK	"-5"
TBWI	39.0900000000000034	-76.6299999999999955	"299"	BALTIMORE WASH.	MD	UNITED STATES		"30112657"	ANNE ARUNDEL	"-5"
TCLT	35.3369440000000026	-80.8850000000000051	"869"	CHARLOTTE	NC	UNITED STATES		"30112658"	MECKLENBURG	"-5"
TCMH	40.0061109999999971	-82.7150000000000034	"1148"	COLUMBUS	OH	UNITED STATES		"30112662"	LICKING	"-5"
TCVG	38.8980559999999969	-84.5799999999999983	"1053"	COVINGTON	KY	UNITED STATES		"30112663"	KENTON	"-5"
TDAL	32.9261109999999988	-96.9680560000000042	"623"	DALLAS LOVE FIELD	TX	UNITED STATES		"30112664"	DALLAS	"-6"
TDAY	40.0219439999999977	-84.1230560000000054	"1020"	DAYTON	OH	UNITED STATES		"30112666"	MIAMI	"-5"
TDCA	38.7588890000000035	-76.9619440000000026	"344"	WASHINGTON NATL	MD	UNITED STATES		"30112699"	PRINCE GEORGE'S	"-5"
TDEN	39.7280560000000023	-104.5261100000000027	"5702"	DENVER	CO	UNITED STATES		"30112667"	ARAPAHOE	"-7"
TDFW	33.0649999999999977	-96.9180560000000071	"584"	DALLAS FT WORTH	TX	UNITED STATES		"30112665"	DENTON	"-6"
TDTW	42.1111110000000011	-83.5150000000000006	"771"	DETROIT	MI	UNITED STATES		"30112668"	WAYNE	"-5"
TEWR	40.5930559999999971	-74.2699999999999960	"135"	NEWARK	NJ	UNITED STATES		"30112683"	UNION	"-5"
TFLL	26.1430560000000014	-80.3438890000000043	"121"	FT LAUDERDALE	FL	UNITED STATES		"30112670"	BROWARD	"-5"
THOU	29.5161109999999987	-95.2419440000000037	"118"	HOUSTON HOBBY	TX	UNITED STATES		"30112671"	BRAZORIA	"-6"
TIAD	39.0838889999999992	-77.5288890000000066	"472"	WASHINGTON DULLES	VA	UNITED STATES		"30112697"	LOUDOUN	"-5"
TIAH	30.0650000000000013	-95.5669440000000066	"253"	HOUSTON INTL	TX	UNITED STATES		"30112672"	HARRIS	"-6"
TICH	37.5069439999999972	-97.4369439999999969	"1352"	WICHITA	KS	UNITED STATES		"30112701"	SEDGWICK	"-6"
TIDS	39.6369439999999997	-86.4361109999999968	"846"	INDIANAPOLIS	IN	UNITED STATES		"30112673"	HENDRICKS	"-5"
TJBQ	18.4849999999999994	-67.1430000000000007	"280"	RAFAEL HERNANDEZ AIRPORT	PR	UNITED STATES		"30110220"	AGUADILLA	"-4"
TJFK	40.5888890000000018	-73.8811110000000042	"112"	NEW YORK CITY JFK	NY	UNITED STATES		"30112682"	KINGS	"-5"
TJRV	18.2560000000000002	-65.6370000000000005	"50"	JOSE APONTE DE LA TORRE AIRPOR	PR	UNITED STATES		"30110221"	CEIBA	"-4"
TLAS	36.1438890000000015	-115.0069400000000002	"2057"	LAS VEGAS	NV	UNITED STATES		"30112675"	CLARK	"-8"
TLVE	41.2899999999999991	-82.0080559999999963	"932"	CLEVELAND	OH	UNITED STATES		"30112661"	LORAIN	"-5"
TMCI	39.4980559999999983	-94.7419440000000037	"1089"	KANSAS CITY	MO	UNITED STATES		"30112674"	PLATTE	"-6"
TMCO	28.3438890000000008	-81.3261109999999974	"171"	ORLANDO INTL	FL	UNITED STATES		"30112685"	ORANGE	"-5"
TMDW	41.6511110000000002	-87.7133330000000058	"764"	CHICAGO MIDWAY	IL	UNITED STATES		"30112659"	COOK	"-6"
TMEM	34.8961109999999977	-89.9930559999999957	"482"	MEMPHIS	MS	UNITED STATES		"30112686"	DESOTO	"-6"
TMIA	25.7580559999999998	-80.4911110000000036	"125"	MIAMI	FL	UNITED STATES		"30112677"	MIAMI-DADE	"-5"
TMKE	42.8188889999999986	-88.0461109999999962	"932"	MILWAUKEE	WI	UNITED STATES		"30112678"	RACINE	"-6"
TMSP	44.8711109999999991	-92.9330559999999934	"1122"	MINNEAPOLIS	MN	UNITED STATES		"30112679"	WASHINGTON	"-6"
TMSY	30.0219440000000013	-90.4030560000000065	"98"	NEW ORLEANS	LA	UNITED STATES		"30112681"	ST. CHARLES	"-6"
TOKC	35.2761110000000002	-97.5100000000000051	"1309"	NORMAN WFO	OK	UNITED STATES		"30112684"	CLEVELAND	"-6"
TORD	41.7969440000000034	-87.8580560000000048	"745"	CHICAGO OHARE	IL	UNITED STATES		"30112660"	COOK	"-6"
TPBI	26.6880559999999996	-80.2730559999999969	"135"	WEST PALM BEACH	FL	UNITED STATES		"30112700"	PALM BEACH	"-5"
TPHL	39.9488890000000012	-75.0688889999999986	"154"	PHILADELPHIA	NJ	UNITED STATES		"30112688"	CAMDEN	"-5"
TPHX	33.4211110000000033	-112.1630499999999984	"1089"	PHOENIX	AZ	UNITED STATES		"30112689"	MARICOPA	"-7"
TPIT	40.5011110000000016	-80.4861109999999940	"1385"	PITTSBURGH	PA	UNITED STATES		"30112690"	BEAVER	"-5"
TRDU	36.0019440000000017	-78.6969440000000020	"515"	RALEIGH	NC	UNITED STATES		"30112691"	WAKE	"-5"
TSDF	38.0461110000000033	-85.6099999999999994	"732"	LOUISVILLE	KY	UNITED STATES		"30112676"	BULLITT	"-5"
TSJU	18.4738889999999998	-66.1788889999999981	"157"	SAN JUAN	PR	UNITED STATES		"30112693"	TOA BAJA	"-4"
TSLC	40.9669439999999980	-111.9300000000000068	"4295"	SALT LAKE CITY	UT	UNITED STATES		"30112692"	DAVIS	"-7"
TSTL	38.8049999999999997	-90.4888890000000004	"646"	ST LOUIS	MO	UNITED STATES		"30112694"	ST. CHARLES	"-6"
TTPA	27.8599999999999994	-82.5180560000000014	"92"	TAMPA	FL	UNITED STATES		"30112695"	HILLSBOROUGH	"-5"
TTUL	36.0711110000000019	-95.8269439999999975	"823"	TULSA	OK	UNITED STATES		"30112696"	TULSA	"-6"